HST                     
1 20580U 90037B   26060.39460694  .00008629  00000+0  28681-3 0  9991
2 20580  28.4699  96.5806 0001584  41.9765 318.0951 15.29328400772040
POLAR                   
1 23802U 96013A   26058.66538524  .00000234  00000+0  00000+0 0  9991
2 23802  79.7365 228.3020 6359182 212.7912  83.4827  1.29845828143433
SWAS                    
1 25560U 98071A   26060.51321811  .00005882  00000+0  37959-3 0  9997
2 25560  69.8972 145.0269 0003249  27.5617 332.5719 15.08797066481028
CXO                     
1 25867U 99040B   26063.59961028  .00000824  00000+0  00000+0 0  9999
2 25867  54.4843 119.7683 8003286 310.7757   0.3877  0.37808984 16920
XMM-NEWTON              
1 25989U 99066A   26061.64181856  .00000062  00000+0  00000+0 0  9993
2 25989  65.0189 284.3763 4712552  66.8130 359.9781  0.50131664 22470
TERRA                   
1 25994U 99068A   26060.44047917  .00000536  00000+0  11830-3 0  9990
2 25994  97.9612 114.1897 0002136 172.0958 312.8190 14.61004514393870
CLUSTER II-FM7 (SAMBA)  
1 26410U 00041A   26063.25310772  .00003639  00000+0  00000+0 0  9991
2 26410 148.9920  34.5676 8908777 250.6745 359.7226  0.44785609 19832
CLUSTER II-FM8 (TANGO)  
1 26464U 00045B   26049.06287974  .00004776  00000+0  00000+0 0  9997
2 26464 149.0711  33.5376 8890045 249.4570 359.4916  0.44405995 19769
ODIN                    
1 26702U 01007A   26060.05713249  .00044540  00000+0  59991-3 0  9992
2 26702  97.4095  95.7537 0003840 160.7540 199.3862 15.57714287372497
TIMED                   
1 26998U 01055B   26060.48200278  .00001528  00000+0  14331-3 0  9990
2 26998  74.0660  91.8406 0002899 284.9172  75.1691 14.94992301314726
CORIOLIS                
1 27640U 03001A   26060.45503817  .00000177  00000+0  10396-3 0  9996
2 27640  98.7160  68.9728 0014396 159.2395 200.9368 14.19908986198932
SORCE                   
1 27651U 03004A   26060.32736127  .00004521  00000+0  33981-3 0  9991
2 27651  39.9902 156.7624 0017053 352.8284   7.2264 15.03021361255661
MOST                    
1 27843U 03031D   26060.50339612  .00000108  00000+0  69545-4 0  9995
2 27843  98.7082  69.7178 0009458 197.2850 162.8006 14.21296597175413
SCISAT 1                
1 27858U 03036A   26060.37603420  .00001129  00000+0  14930-3 0  9993
2 27858  73.9310  25.5266 0005943 121.0950 239.0810 14.81291367215485
SWIFT                   
1 28485U 04047A   26059.97015853  .00042981  00000+0  52827-3 0  9992
2 28485  20.5535 293.5160 0002690 274.7823  85.2314 15.58432639169909
HINODE (SOLAR-B)        
1 29479U 06041A   26060.46300645  .00000848  00000+0  15476-3 0  9999
2 29479  98.0629  78.1768 0016091 269.8077  90.1285 14.68458202 39063
SHIJIAN-6 02A (SJ-6 02A)
1 29505U 06046A   26060.45878009  .00011578  00000+0  61341-3 0  9991
2 29505  97.6516 100.7422 0004157 133.4992 226.6586 15.15558562 55942
SHIJIAN-6 02B (SJ-6 02B)
1 29506U 06046B   26060.56489634  .00002732  00000+0  21863-3 0  9993
2 29506  97.7052  90.3669 0014260  68.5520 291.7223 15.00951657 54594
FGRST (GLAST)           
1 33053U 08029A   26060.49475789  .00004502  00000+0  17076-3 0  9994
2 33053  25.5808 231.8900 0008684 133.0095 227.1171 15.23253627979398
SDO                     
1 36395U 10005A   26057.63173001 -.00000087  00000+0  00000+0 0  9997
2 36395  34.4177  88.0171 0000464  94.7218  99.1943  1.00275115 58958
CRYOSAT 2               
1 36508U 10013A   26060.49734524  .00000225  00000+0  55190-4 0  9991
2 36508  92.0223 251.2121 0002136  85.5433 274.6018 14.51904368842458
X-SAT                   
1 37389U 11015C   26060.52905897  .00000024  00000+0  27851-4 0  9999
2 37389  98.3410  42.7401 0013081 302.6677  57.3241 14.25168130772345
GCOM-W1 (SHIZUKU)       
1 38337U 12025A   26060.43752237  .00000764  00000+0  17976-3 0  9990
2 38337  98.2044   2.6226 0001575  77.1970  35.4014 14.57083737733342
NUSTAR                  
1 38358U 12031A   26060.58335647  .00021205  00000+0  12946-2 0  9992
2 38358   6.0266 120.5770 0008680 301.8746  13.0532 15.07573412  1305
NEOSSAT                 
1 39089U 13009D   26060.47267684  .00000273  00000+0  10923-3 0  9999
2 39089  98.4134 243.0759 0010568 202.1388 157.9343 14.35780260681287
BRITE-AUSTRIA           
1 39091U 13009F   26060.45502593  .00000281  00000+0  11045-3 0  9996
2 39091  98.3948 242.5687 0009868 195.7698 164.3182 14.36490276681580
IRIS                    
1 39197U 13033A   26060.47765602  .00001750  00000+0  20764-3 0  9994
2 39197  97.9399 260.0544 0023618 313.5578  46.3675 14.85614761684383
HISAKI (SPRINT-A)       
1 39253U 13049A   26060.08527939  .00000108  00000+0  54754-4 0  9993
2 39253  29.7212  49.5992 0136737 220.3721 138.6631 13.55529713616742
CASSIOPE                
1 39265U 13055A   26060.44837454  .00040154 -59757-6  48466-3 0  9997
2 39265  80.9180 196.8434 0318419  63.7317 299.6258 15.18051570651287
STSAT-3                 
1 39422U 13066G   26060.48524145  .00003578  00000+0  27714-3 0  9999
2 39422  97.6046  32.2675 0012443  42.4169 317.8015 15.02006275668035
SWARM B                 
1 39451U 13067A   26060.48179108  .00005729  00000+0  21014-3 0  9994
2 39451  87.7477  14.9741 0003686  91.7051 268.4620 15.27761060666793
